STARLINK-2217_new
1 18568C 21041R   21326.11667631  .00000409  00000-0  27429-4 0  3269
2 18568  53.0522 333.2151 0001909  60.3051  42.5647 15.06399591    19
STARLINK-2217_old
1 28568C 21041R   21325.15572978 -.00000078  00000-0 -52315-5 0  3257
2 28568  53.0517 337.5293 0001831  60.9166 227.8550 15.06388065    19
